#dV2023  1  9 10  0  0.00000000    1682       CTS   FIT  GFZ
## 2244 122400.00000000    30.00000000 59953 0.4166666666667
+    1   L64  0  0  0  0  0  0  0  0  0  0  0  0  0  0  0  0
+          0  0  0  0  0  0  0  0  0  0  0  0  0  0  0  0  0
+          0  0  0  0  0  0  0  0  0  0  0  0  0  0  0  0  0
+          0  0  0  0  0  0  0  0  0  0  0  0  0  0  0  0  0
+          0  0  0  0  0  0  0  0  0  0  0  0  0  0  0  0  0
++         0  0  0  0  0  0  0  0  0  0  0  0  0  0  0  0  0
++         0  0  0  0  0  0  0  0  0  0  0  0  0  0  0  0  0
++         0  0  0  0  0  0  0  0  0  0  0  0  0  0  0  0  0
++         0  0  0  0  0  0  0  0  0  0  0  0  0  0  0  0  0
++         0  0  0  0  0  0  0  0  0  0  0  0  0  0  0  0  0
%c L  cc GPS ccc cccc cccc cccc cccc ccccc ccccc ccccc ccccc
%c cc cc ccc ccc cccc cccc cccc cccc ccccc ccccc ccccc ccccc
%f  0.0000000  0.000000000  0.00000000000  0.000000000000000
%f  0.0000000  0.000000000  0.00000000000  0.000000000000000
%i    0    0    0    0      0      0      0      0         0
%i    0    0    0    0      0      0      0      0         0
/* CCCCCCCCCCCCCCCCCCCCCCCCCCCCCCCCCCCCCCCCCCCCCCCCCCCCCCCCCCCCCCCCCCCCCCCCCCCCC
/* C                             GFZ RSO-ORBIT                                 C
/* C DOI: https://doi.org/10.5880/GFZ_ORBIT/RSO/L64_G_v02                      C
/* C                                                                           C
/* C DORIS        RMS: not applicable                                          C
/* C GNSS-E Code  RMS: not applicable                                          C
/* C GNSS-E Phase RMS: not applicable                                          C
/* C GNSS-G Code  RMS:  62.502 [cm]   Obs.acc.:     14206 Obs.eli.:      1322  C
/* C GNSS-G Phase RMS:   4.091 [mm]   Obs.acc.:     14206 Obs.eli.:      1322  C
/* C SLR          RMS:   3.228 [cm]   Obs.acc.:       106 Obs.eli.:         0  C
/* C                                                                           C
/* CCCCCCCCCCCCCCCCCCCCCCCCCCCCCCCCCCCCCCCCCCCCCCCCCCCCCCCCCCCCCCCCCCCCCCCCCCCCC
*  2023  1  9 15 57  0.00000000
PL64   5262.789249   2104.316273  -3881.421809  25727.304241
VL64  40897.433334  13654.262897  62826.957729 999999.999999
*  2023  1  9 15 57 30.00000000
PL64   5382.649671   2143.848970  -3690.823951  25727.763449
VL64  39001.422498  12699.806928  64226.583808 999999.999999
*  2023  1  9 15 58  0.00000000
PL64   5496.750269   2180.509377  -3496.133271  25728.222666
VL64  37057.898633  11739.613657  65555.247101 999999.999999
*  2023  1  9 15 58 30.00000000
PL64   5604.951665   2214.282175  -3297.564947  25728.681894
VL64  35068.978811  10774.943849  66811.434532 999999.999999
*  2023  1  9 15 59  0.00000000
PL64   5707.120922   2245.155822  -3095.338573  25729.141078
VL64  33036.840613   9807.055276  67993.715703 999999.999999
*  2023  1  9 15 59 30.00000000
PL64   5803.131721   2273.122542  -2889.677908  25729.600437
VL64  30963.717389   8837.201041  69100.744108 999999.999999
*  2023  1  9 16  0  0.00000000
PL64   5892.864526   2298.178310  -2680.810626  25730.059594
VL64  28851.895515   7866.628239  70131.257761 999999.999999
*  2023  1  9 16  0 30.00000000
PL64   5976.206731   2320.322832  -2468.968056  25730.518821
VL64  26703.712054   6896.576422  71084.080219 999999.999999
*  2023  1  9 16  1  0.00000000
PL64   6053.052821   2339.559520  -2254.384928  25730.978133
VL64  24521.552899   5928.275961  71958.122252 999999.999999
*  2023  1  9 16  1 30.00000000
PL64   6123.304504   2355.895459  -2037.299105  25731.437572
VL64  22307.849992   4962.945665  72752.384228 999999.999999
*  2023  1  9 16  2  0.00000000
PL64   6186.870850   2369.341369  -1817.951315  25731.897148
VL64  20065.077468   4001.790336  73465.957101 999999.999999
*  2023  1  9 16  2 30.00000000
PL64   6243.668411   2379.911566  -1596.584874  25732.356700
VL64  17795.748728   3045.999783  74098.022036 999999.999999
*  2023  1  9 16  3  0.00000000
PL64   6293.621336   2387.623908  -1373.445421  25732.816032
VL64  15502.415199   2096.748725  74647.851353 999999.999999
*  2023  1  9 16  3 30.00000000
PL64   6336.661484   2392.499757  -1148.780638  25733.275191
VL64  13187.664336   1155.195381  75114.811763 999999.999999
*  2023  1  9 16  4  0.00000000
PL64   6372.728523   2394.563918   -922.839959  25733.734501
VL64  10854.115345    222.478739  75498.366970 999999.999999
*  2023  1  9 16  4 30.00000000
PL64   6401.770023   2393.844584   -695.874283  25734.193886
VL64   8504.414373   -700.283486  75798.078365 999999.999999
*  2023  1  9 16  5  0.00000000
PL64   6423.741525   2390.373267   -468.135677  25734.653167
VL64   6141.229962  -1611.996481  76013.605228 999999.999999
*  2023  1  9 16  5 30.00000000
PL64   6438.606605   2384.184725   -239.877083  25735.112396
VL64   3767.248549  -2511.590432  76144.704109 999999.999999
*  2023  1  9 16  6  0.00000000
PL64   6446.336920   2375.316888    -11.352031  25735.571884
VL64   1385.170809  -3398.021872  76191.226967 999999.999999
*  2023  1  9 16  6 30.00000000
PL64   6446.912247   2363.810774    217.185645  25736.032174
VL64  -1002.289862  -4270.274042  76153.119585 999999.999999
*  2023  1  9 16  7  0.00000000
PL64   6440.320523   2349.710414    445.482093  25736.493075
VL64  -3392.408153  -5127.357166  76030.421875 999999.999999
*  2023  1  9 16  7 30.00000000
PL64   6426.557875   2333.062764    673.283719  25736.953611
VL64  -5782.448663  -5968.308837  75823.269842 999999.999999
*  2023  1  9 16  8  0.00000000
PL64   6405.628650   2313.917627    900.337489  25737.413669
VL64  -8169.669702  -6792.195377  75531.898028 999999.999999
*  2023  1  9 16  8 30.00000000
PL64   6377.545419   2292.327560   1126.391218  25737.873462
VL64 -10551.328791  -7598.114125  75156.640468 999999.999999
*  2023  1  9 16  9  0.00000000
PL64   6342.328978   2268.347780   1351.193874  25738.333365
VL64 -12924.688042  -8385.195387  74697.928833 999999.999999
*  2023  1  9 16  9 30.00000000
PL64   6300.008322   2242.036062   1574.495861  25738.792989
VL64 -15287.017074  -9152.603333  74156.290055 999999.999999
*  2023  1  9 16 10  0.00000000
PL64   6250.620626   2213.452636   1796.049306  25739.252463
VL64 -17635.595263  -9899.537047  73532.346207 999999.999999
*  2023  1  9 16 10 30.00000000
PL64   6194.211208   2182.660080   2015.608347  25739.711817
VL64 -19967.716170 -10625.232130  72826.814451 999999.999999
*  2023  1  9 16 11  0.00000000
PL64   6130.833475   2149.723210   2232.929412  25740.171077
VL64 -22280.692385 -11328.961473  72040.504639 999999.999999
*  2023  1  9 16 11 30.00000000
PL64   6060.548865   2114.708969   2447.771493  25740.630314
VL64 -24571.857803 -12010.034232  71174.316049 999999.999999
*  2023  1  9 16 12  0.00000000
PL64   5983.426784   2077.686318   2659.896416  25741.089520
VL64 -26838.568017 -12667.794764  70229.237758 999999.999999
*  2023  1  9 16 12 30.00000000
PL64   5899.544532   2038.726132   2869.069108  25741.548728
VL64 -29078.204424 -13301.624782  69206.350671 999999.999999
*  2023  1  9 16 13  0.00000000
PL64   5808.987219   1997.901080   3075.057878  25742.007957
VL64 -31288.180253 -13910.946128  68106.824921 999999.999999
*  2023  1  9 16 13 30.00000000
PL64   5711.847664   1955.285503   3277.634672  25742.467210
VL64 -33465.943427 -14495.221001  66931.915970 999999.999999
*  2023  1  9 16 14  0.00000000
PL64   5608.226288   1910.955299   3476.575327  25742.926454
VL64 -35608.978616 -15053.951693  65682.963136 999999.999999
*  2023  1  9 16 14 30.00000000
PL64   5498.230998   1864.987796   3671.659826  25743.385636
VL64 -37714.810177 -15586.681229  64361.388566 999999.999999
*  2023  1  9 16 15  0.00000000
PL64   5381.977064   1817.461630   3862.672538  25743.844927
VL64 -39781.006126 -16092.993814  62968.695714 999999.999999
*  2023  1  9 16 15 30.00000000
PL64   5259.586982   1768.456627   4049.402460  25744.304100
VL64 -41805.183074 -16572.513941  61506.465321 999999.999999
*  2023  1  9 16 16  0.00000000
PL64   5131.190320   1718.053676   4231.643442  25744.763236
VL64 -43785.007404 -17024.906031  59976.349828 999999.999999
*  2023  1  9 16 16 30.00000000
PL64   4996.923577   1666.334615   4409.194394  25745.222451
VL64 -45718.193073 -17449.875172  58380.071932 999999.999999
*  2023  1  9 16 17  0.00000000
PL64   4856.930040   1613.382103   4581.859505  25745.681699
VL64 -47602.502355 -17847.167133  56719.427750 999999.999999
*  2023  1  9 16 17 30.00000000
PL64   4711.359625   1559.279503   4749.448463  25746.140945
VL64 -49435.751640 -18216.569291  54996.287996 999999.999999
*  2023  1  9 16 18  0.00000000
PL64   4560.368715   1504.110749   4911.776676  25746.600306
VL64 -51215.817296 -18557.911425  53212.593636 999999.999999
*  2023  1  9 16 18 30.00000000
PL64   4404.119968   1447.960225   5068.665474  25747.059797
VL64 -52940.638294 -18871.064251  51370.350469 999999.999999
*  2023  1  9 16 19  0.00000000
PL64   4242.782130   1390.912644   5219.942296  25747.519211
VL64 -54608.217543 -19155.938140  49471.626224 999999.999999
*  2023  1  9 16 19 30.00000000
PL64   4076.529838   1333.052926   5365.440877  25747.978626
VL64 -56216.624111 -19412.483345  47518.549141 999999.999999
*  2023  1  9 16 20  0.00000000
PL64   3905.543421   1274.466083   5505.001421  25748.438089
VL64 -57763.996769 -19640.690803  45513.304429 999999.999999
*  2023  1  9 16 20 30.00000000
PL64   3730.008684   1215.237089   5638.470771  25748.897464
VL64 -59248.544849 -19840.592008  43458.128990 999999.999999
*  2023  1  9 16 21  0.00000000
PL64   3550.116700   1155.450767   5765.702550  25749.356808
VL64 -60668.547584 -20012.257712  41355.309454 999999.999999
*  2023  1  9 16 21 30.00000000
PL64   3366.063595   1095.191670   5886.557317  25749.816219
VL64 -62022.356364 -20155.796975  39207.181185 999999.999999
*  2023  1  9 16 22  0.00000000
PL64   3178.050333   1034.543967   6000.902707  25750.275609
VL64 -63308.396881 -20271.356572  37016.124795 999999.999999
EOF
